CCSDS_OMM_VERS,COMMENT,CREATION_DATE,ORIGINATOR,OBJECT_NAME,OBJECT_ID,CENTER_NAME,REF_FRAME,TIME_SYSTEM,MEAN_ELEMENT_THEORY,EPOCH,MEAN_MOTION,ECCENTRICITY,INCLINATION,RA_OF_ASC_NODE,ARG_OF_PERICENTER,MEAN_ANOMALY,EPHEMERIS_TYPE,CLASSIFICATION_TYPE,NORAD_CAT_ID,ELEMENT_SET_NO,REV_AT_EPOCH,BSTAR,MEAN_MOTION_DOT,MEAN_MOTION_DDOT,SEMIMAJOR_AXIS,PERIOD,APOAPSIS,PERIAPSIS,OBJECT_TYPE,RCS_SIZE,COUNTRY_CODE,LAUNCH_DATE,SITE,DECAY_DATE,FILE,GP_ID,TLE_LINE0,TLE_LINE1,TLE_LINE2
2,GENERATED VIA SPACE-TRACK.ORG API,2014-10-03T14:39:53,18 SPCS,GALILEO-FM3,2012-055A,EARTH,TEME,UTC,SGP4,2014-10-02T20:41:28.391423,1.70473626,0.0003185,55.0564,219.4799,235.6705,124.281,0,U,38857,999,1228,0.0,-4e-08,0,29600.382,844.705,23231.674,23212.819,PAYLOAD,LARGE,ESA,2012-10-12,FRGUI,,1756288,97151963,0 GALILEO-FM3,1 38857U 12055A   14275.86213416 -.00000004  00000-0  00000+0 0  9998,2 38857 055.0564 219.4799 0003185 235.6705 124.2810 01.70473626 12281
2,GENERATED VIA SPACE-TRACK.ORG API,2014-10-05T14:40:32,18 SPCS,GALILEO-FM3,2012-055A,EARTH,TEME,UTC,SGP4,2014-10-05T05:00:10.774655,1.70473708,0.0003109,55.0557,219.4146,235.6737,124.2672,0,U,38857,999,1232,0.0,-2.4e-07,0,29600.372,844.705,23231.44,23213.035,PAYLOAD,LARGE,ESA,2012-10-12,FRGUI,,1757317,97169527,0 GALILEO-FM3,1 38857U 12055A   14278.20845804 -.00000024  00000-0  00000+0 0  9993,2 38857 055.0557 219.4146 0003109 235.6737 124.2672 01.70473708 12322
2,GENERATED VIA SPACE-TRACK.ORG API,2014-10-08T14:39:41,18 SPCS,GALILEO-FM3,2012-055A,EARTH,TEME,UTC,SGP4,2014-10-08T03:23:35.889503,1.7047379,0.0002961,55.0548,219.3332,235.8041,124.1398,0,U,38857,999,1237,0.0,-2.8e-07,0,29600.363,844.704,23230.992,23213.463,PAYLOAD,LARGE,ESA,2012-10-12,FRGUI,,1758888,97196457,0 GALILEO-FM3,1 38857U 12055A   14281.14138761 -.00000028  00000-0  00000+0 0  9991,2 38857 055.0548 219.3332 0002961 235.8041 124.1398 01.70473790 12373
2,GENERATED VIA SPACE-TRACK.ORG API,2014-10-11T14:35:57,18 SPCS,GALILEO-FM3,2012-055A,EARTH,TEME,UTC,SGP4,2014-10-11T01:47:02.968223,1.70473817,0.0002849,55.0537,219.252,236.0806,123.8825,0,U,38857,999,1242,0.0,-2.2e-07,0,29600.36,844.704,23230.658,23213.792,PAYLOAD,LARGE,ESA,2012-10-12,FRGUI,,1760613,97223837,0 GALILEO-FM3,1 38857U 12055A   14284.07433991 -.00000022  00000-0  00000+0 0  9993,2 38857 055.0537 219.2520 0002849 236.0806 123.8825 01.70473817 12423
2,GENERATED VIA SPACE-TRACK.ORG API,2014-10-14T15:51:59,18 SPCS,GALILEO-FM3,2012-055A,EARTH,TEME,UTC,SGP4,2014-10-14T00:10:28.792416,1.704738,0.0002747,55.0525,219.1707,236.4464,123.5286,0,U,38857,999,1247,0.0,-2.8e-07,0,29600.362,844.704,23230.358,23214.095,PAYLOAD,LARGE,ESA,2012-10-12,FRGUI,,1762116,97250067,0 GALILEO-FM3,1 38857U 12055A   14287.00727769 -.00000028  00000-0  00000+0 0  9994,2 38857 055.0525 219.1707 0002747 236.4464 123.5286 01.70473800 12472
2,GENERATED VIA SPACE-TRACK.ORG API,2014-10-17T14:42:51,18 SPCS,GALILEO-FM3,2012-055A,EARTH,TEME,UTC,SGP4,2014-10-16T22:33:52.799616,1.70473732,0.0002614,55.0513,219.0893,235.6039,124.3708,0,U,38857,999,1252,0.0,-3.4e-07,0,29600.37,844.704,23229.972,23214.497,PAYLOAD,LARGE,ESA,2012-10-12,FRGUI,,1763716,97277341,0 GALILEO-FM3,1 38857U 12055A   14289.94019444 -.00000034  00000-0  00000+0 0  9990,2 38857 055.0513 219.0893 0002614 235.6039 124.3708 01.70473732 12524
2,GENERATED VIA SPACE-TRACK.ORG API,2014-10-20T04:40:03,18 SPCS,GALILEO-FM3,2012-055A,EARTH,TEME,UTC,SGP4,2014-10-19T20:57:17.023679,1.7047375,0.0003144,55.0509,219.0058,236.0364,123.938,0,U,38857,999,1257,0.0,-2.9e-07,0,29600.367,844.704,23231.539,23212.926,PAYLOAD,LARGE,ESA,2012-10-12,FRGUI,,1765167,97300757,0 GALILEO-FM3,1 38857U 12055A   14292.87311370 -.00000029  00000-0  00000+0 0  9993,2 38857 055.0509 219.0058 0003144 236.0364 123.9380 01.70473750 12573
2,GENERATED VIA SPACE-TRACK.ORG API,2014-10-23T06:31:18,18 SPCS,GALILEO-FM3,2012-055A,EARTH,TEME,UTC,SGP4,2014-10-22T19:20:43.051776,1.70473528,0.0002438,55.049,218.9259,231.7632,128.2262,0,U,38857,999,1262,0.0,-1.4e-07,0,29600.393,844.705,23229.475,23215.042,PAYLOAD,LARGE,ESA,2012-10-12,FRGUI,,1766805,97328067,0 GALILEO-FM3,1 38857U 12055A   14295.80605384 -.00000014  00000-0  00000+0 0  9994,2 38857 055.0490 218.9259 0002438 231.7632 128.2262 01.70473528 12624
2,GENERATED VIA SPACE-TRACK.ORG API,2014-10-23T18:48:33,18 SPCS,GALILEO-FM3,2012-055A,EARTH,TEME,UTC,SGP4,2014-10-23T09:25:25.891392,1.70476213,0.0002683,55.0487,218.9089,234.9708,125.0248,0,U,38857,999,1263,0.0001,5e-08,0,29600.082,844.692,23229.889,23214.006,PAYLOAD,LARGE,ESA,2012-10-12,FRGUI,,1767024,97332137,0 GALILEO-FM3,1 38857U 12055A   14296.39266078  .00000005  00000-0  10000-3 0  9996,2 38857 055.0487 218.9089 0002683 234.9708 125.0248 01.70476213 12636
2,GENERATED VIA SPACE-TRACK.ORG API,2014-10-27T14:34:10,18 SPCS,GALILEO-FM3,2012-055A,EARTH,TEME,UTC,SGP4,2014-10-26T21:53:33.668736,1.70473513,0.0002325,55.0475,218.8113,228.2596,131.7599,0,U,38857,999,1269,0.0,6e-08,0,29600.395,844.706,23229.142,23215.378,PAYLOAD,LARGE,ESA,2012-10-12,FRGUI,,1769025,97366510,0 GALILEO-FM3,1 38857U 12055A   14299.91219524  .00000006  00000-0  00000+0 0  9997,2 38857 055.0475 218.8113 0002325 228.2596 131.7599 01.70473513 12693
2,GENERATED VIA SPACE-TRACK.ORG API,2014-10-31T06:40:41,18 SPCS,GALILEO-FM3,2012-055A,EARTH,TEME,UTC,SGP4,2014-10-31T00:26:20.239583,1.70473662,0.0002218,55.0462,218.6968,226.081,133.9362,0,U,38857,999,1276,0.0,-1.2e-07,0,29600.378,844.705,23228.808,23215.677,PAYLOAD,LARGE,ESA,2012-10-12,FRGUI,,1771024,97397736,0 GALILEO-FM3,1 38857U 12055A   14304.01828981 -.00000012  00000-0  00000+0 0  9996,2 38857 055.0462 218.6968 0002218 226.0810 133.9362 01.70473662 12766
2,GENERATED VIA SPACE-TRACK.ORG API,2014-11-05T22:28:45,18 SPCS,GALILEO-FM3,2012-055A,EARTH,TEME,UTC,SGP4,2014-11-05T07:08:29.470847,1.70473838,0.0002004,55.0447,218.55,224.4906,135.5322,0,U,38857,999,1285,0.0,-1.9e-07,0,29600.357,844.704,23228.154,23216.29,PAYLOAD,LARGE,ESA,2012-10-12,FRGUI,,1773954,97448314,0 GALILEO-FM3,1 38857U 12055A   14309.29756332 -.00000019  00000-0  00000+0 0  9998,2 38857 055.0447 218.5500 0002004 224.4906 135.5322 01.70473838 12850
2,GENERATED VIA SPACE-TRACK.ORG API,2014-11-10T14:21:42,18 SPCS,GALILEO-FM3,2012-055A,EARTH,TEME,UTC,SGP4,2014-11-09T23:46:00.051167,1.70473841,0.0001846,55.043,218.4199,223.8791,136.1708,0,U,38857,999,1293,0.0,-1.4e-07,0,29600.357,844.704,23227.686,23216.758,PAYLOAD,LARGE,ESA,2012-10-12,FRGUI,,1776154,97486733,0 GALILEO-FM3,1 38857U 12055A   14313.99027837 -.00000014  00000-0  00000+0 0  9996,2 38857 055.0430 218.4199 0001846 223.8791 136.1708 01.70473841 12931
2,GENERATED VIA SPACE-TRACK.ORG API,2014-11-15T01:02:46,18 SPCS,GALILEO-FM3,2012-055A,EARTH,TEME,UTC,SGP4,2014-11-14T16:23:26.257919,1.70473629,0.0002077,55.0518,218.2894,225.9486,134.0939,0,U,38857,999,1301,0.0,-1.4e-07,0,29600.381,844.705,23228.394,23216.098,PAYLOAD,LARGE,ESA,2012-10-12,FRGUI,,1778305,97522258,0 GALILEO-FM3,1 38857U 12055A   14318.68294280 -.00000014  00000-0  00000+0 0  9995,2 38857 055.0518 218.2894 0002077 225.9486 134.0939 01.70473629 13016
2,GENERATED VIA SPACE-TRACK.ORG API,2014-11-18T14:46:17,18 SPCS,GALILEO-FM3,2012-055A,EARTH,TEME,UTC,SGP4,2014-11-18T04:51:32.266655,1.70473586,0.0001653,55.0403,218.191,214.6575,145.4001,0,U,38857,999,1307,0.0,5e-08,0,29600.386,844.705,23227.144,23217.358,PAYLOAD,LARGE,ESA,2012-10-12,FRGUI,,1779740,97546245,0 GALILEO-FM3,1 38857U 12055A   14322.20245679  .00000005  00000-0  00000+0 0  9995,2 38857 055.0403 218.1910 0001653 214.6575 145.4001 01.70473586 13074
2,GENERATED VIA SPACE-TRACK.ORG API,2014-11-21T22:37:34,18 SPCS,GALILEO-FM3,2012-055A,EARTH,TEME,UTC,SGP4,2014-11-21T17:19:40.866528,1.7047352,0.0001623,55.0392,218.0927,209.8226,150.2593,0,U,38857,999,1313,0.0,3.1e-07,0,29600.394,844.705,23227.063,23217.455,PAYLOAD,LARGE,ESA,2012-10-12,FRGUI,,1781857,97578383,0 GALILEO-FM3,1 38857U 12055A   14325.72200077  .00000031  00000-0  00000+0 0  9997,2 38857 055.0392 218.0927 0001623 209.8226 150.2593 01.70473520 13139
2,GENERATED VIA SPACE-TRACK.ORG API,2014-11-21T20:13:12,18 SPCS,GALILEO-FM3,2012-055A,EARTH,TEME,UTC,SGP4,2014-11-21T17:19:42.068351,1.70475133,0.0001789,55.04,218.0935,218.7507,141.333,0,U,38857,999,1313,0.0001,5e-08,0,29600.207,844.697,23227.368,23216.777,PAYLOAD,LARGE,ESA,2012-10-12,FRGUI,,1781792,97577282,0 GALILEO-FM3,1 38857U 12055A   14325.72201468  .00000005  00000-0  10000-3 0  9998,2 38857 055.0400 218.0935 0001789 218.7507 141.3330 01.70475133 13134
2,GENERATED VIA SPACE-TRACK.ORG API,2014-11-25T14:34:13,18 SPCS,GALILEO-FM3,2012-055A,EARTH,TEME,UTC,SGP4,2014-11-25T05:47:47.944032,1.70473592,0.0001605,55.0382,217.9944,205.0639,155.0278,0,U,38857,999,1319,0.0,3.6e-07,0,29600.386,844.705,23227.002,23217.5,PAYLOAD,LARGE,ESA,2012-10-12,FRGUI,,1783604,97610221,0 GALILEO-FM3,1 38857U 12055A   14329.24152713  .00000036  00000-0  00000+0 0  9996,2 38857 055.0382 217.9944 0001605 205.0639 155.0278 01.70473592 13199
2,GENERATED VIA SPACE-TRACK.ORG API,2014-11-28T14:30:16,18 SPCS,GALILEO-FM3,2012-055A,EARTH,TEME,UTC,SGP4,2014-11-28T04:11:11.090688,1.70473718,0.0001565,55.0375,217.9125,202.4361,157.6429,0,U,38857,999,1324,0.0,1.9e-07,0,29600.352,844.704,23226.849,23217.584,PAYLOAD,LARGE,ESA,2012-10-12,FRGUI,,1785135,97637847,0 GALILEO-FM3,1 38857U 12055A   14332.17443392  .00000019  00000-0  00000+0 0  9999,2 38857 055.0375 217.9125 0001565 202.4361 157.6429 01.70473718 13242
2,GENERATED VIA SPACE-TRACK.ORG API,2014-12-01T22:33:23,18 SPCS,GALILEO-FM3,2012-055A,EARTH,TEME,UTC,SGP4,2014-12-01T02:34:35.247360,1.70473827,0.0001485,55.0368,217.8309,199.7293,160.3457,0,U,38857,999,1329,0.0,1.6e-07,0,29600.339,844.704,23226.6,23217.809,PAYLOAD,LARGE,ESA,2012-10-12,FRGUI,,1786732,97665467,0 GALILEO-FM3,1 38857U 12055A   14335.10735240  .00000016  00000-0  00000+0 0  9998,2 38857 055.0368 217.8309 0001485 199.7293 160.3457 01.70473827 13298
